{"type":"FeatureCollection","sample":true,"features":[{"type":"Feature","geometry":{"type":"Polygon","coordinates":[[[74.56,36.38],[74.7,36.38],[74.7,36.29],[74.56,36.29],[74.56,36.38]]]},"properties":{"name":"SAMPLE Unit A","pop_exposed":13300,"risk_score":0.81,"risk_class":5}},{"type":"Feature","geometry":{"type":"Polygon","coordinates":[[[74.44,36.48],[74.56,36.48],[74.56,36.38],[74.44,36.38],[74.44,36.48]]]},"properties":{"name":"SAMPLE Unit B","pop_exposed":1350,"risk_score":0.42,"risk_class":3}}]}