{"type":"FeatureCollection","sample":true,"features":[{"type":"Feature","geometry":{"type":"Point","coordinates":[74.624,36.322]},"properties":{"name":"SAMPLE Settlement 1","population":4200,"type":"Village"}},{"type":"Feature","geometry":{"type":"Point","coordinates":[74.663,36.316]},"properties":{"name":"SAMPLE Settlement 2","population":9100,"type":"Town"}},{"type":"Feature","geometry":{"type":"Point","coordinates":[74.598,36.352]},"properties":{"name":"SAMPLE Settlement 3","population":1350,"type":"Hamlet"}}]}